[
    {
        "Altitude(m)": 556861.2359545559,
        "Argument of Periapsis(deg)": 0.0,
        "Eccentricity": 0.0,
        "Inclination(deg)": 53.0,
        "Latitude(deg)": -13.154040415784863,
        "Longitude(deg)": 139.94366257750224,
        "Mean Anomaly(deg)": -16.363600000000087,
        "RAAN(deg)": 250.00000000000003,
        "Satellite Name": "Starlink Shell 1 1121",
        "Satellite Number": 1121,
        "Semi-Major Axis(m)": 6931778.249405717,
        "Time(s)": 0
    },
    {
        "Altitude(m)": 556730.2401312925,
        "Argument of Periapsis(deg)": 0.00034857847951123687,
        "Eccentricity": 0.0,
        "Inclination(deg)": 53.0,
        "Latitude(deg)": -12.658141941643514,
        "Longitude(deg)": 140.29842216494643,
        "Mean Anomaly(deg)": -15.73676879644339,
        "RAAN(deg)": 249.99948122992254,
        "Satellite Name": "Starlink Shell 1 1121",
        "Satellite Number": 1121,
        "Semi-Major Axis(m)": 6931778.249405717,
        "Time(s)": 10
    },
    {
        "Altitude(m)": 556601.423006395,
        "Argument of Periapsis(deg)": 0.0006971569590224737,
        "Eccentricity": 0.0,
        "Inclination(deg)": 53.0,
        "Latitude(deg)": -12.161624872101582,
        "Longitude(deg)": 140.65166593929965,
        "Mean Anomaly(deg)": -15.109937592886594,
        "RAAN(deg)": 249.99896245984507,
        "Satellite Name": "Starlink Shell 1 1121",
        "Satellite Number": 1121,
        "Semi-Major Axis(m)": 6931778.249405717,
        "Time(s)": 20
    },
    {
        "Altitude(m)": 556474.8240579956,
        "Argument of Periapsis(deg)": 0.0010457354385337105,
        "Eccentricity": 0.0,
        "Inclination(deg)": 53.0,
        "Latitude(deg)": -11.664515753267404,
        "Longitude(deg)": 141.00345909906068,
        "Mean Anomaly(deg)": -14.483106389329897,
        "RAAN(deg)": 249.9984436897676,
        "Satellite Name": "Starlink Shell 1 1121",
        "Satellite Number": 1121,
        "Semi-Major Axis(m)": 6931778.249405717,
        "Time(s)": 30
    },
    {
        "Altitude(m)": 556350.4816316881,
        "Argument of Periapsis(deg)": 0.0013943139180449475,
        "Eccentricity": 0.0,
        "Inclination(deg)": 53.0,
        "Latitude(deg)": -11.1668408255456,
        "Longitude(deg)": 141.35386672788556,
        "Mean Anomaly(deg)": -13.856275185773152,
        "RAAN(deg)": 249.99792491969012,
        "Satellite Name": "Starlink Shell 1 1121",
        "Satellite Number": 1121,
        "Semi-Major Axis(m)": 6931778.249405717,
        "Time(s)": 40
    },
    {
        "Altitude(m)": 556228.4329241493,
        "Argument of Periapsis(deg)": 0.0017428923975561844,
        "Eccentricity": 0.0,
        "Inclination(deg)": 53.0,
        "Latitude(deg)": -10.668626038491396,
        "Longitude(deg)": 141.70295281258413,
        "Mean Anomaly(deg)": -13.229443982216406,
        "RAAN(deg)": 249.9974061496127,
        "Satellite Name": "Starlink Shell 1 1121",
        "Satellite Number": 1121,
        "Semi-Major Axis(m)": 6931778.249405717,
        "Time(s)": 50
    },
    {
        "Altitude(m)": 556108.7139673514,
        "Argument of Periapsis(deg)": 0.002091470877067421,
        "Eccentricity": 0.0,
        "Inclination(deg)": 53.0,
        "Latitude(deg)": -10.16989706539694,
        "Longitude(deg)": 142.05078077393094,
        "Mean Anomaly(deg)": -12.602612778659712,
        "RAAN(deg)": 249.99688737953517,
        "Satellite Name": "Starlink Shell 1 1121",
        "Satellite Number": 1121,
        "Semi-Major Axis(m)": 6931778.249405717,
        "Time(s)": 60
    },
    {
        "Altitude(m)": 555991.3596133166,
        "Argument of Periapsis(deg)": 0.0024400493565786582,
        "Eccentricity": 0.0,
        "Inclination(deg)": 53.0,
        "Latitude(deg)": -9.670679317621918,
        "Longitude(deg)": 142.39741399740848,
        "Mean Anomaly(deg)": -11.975781575103065,
        "RAAN(deg)": 249.99636860945768,
        "Satellite Name": "Starlink Shell 1 1121",
        "Satellite Number": 1121,
        "Semi-Major Axis(m)": 6931778.249405717,
        "Time(s)": 70
    },
    {
        "Altitude(m)": 555876.4035195003,
        "Argument of Periapsis(deg)": 0.002788627836089895,
        "Eccentricity": 0.0,
        "Inclination(deg)": 53.0,
        "Latitude(deg)": -9.170997958677878,
        "Longitude(deg)": 142.7429148510037,
        "Mean Anomaly(deg)": -11.34895037154632,
        "RAAN(deg)": 249.99584983938027,
        "Satellite Name": "Starlink Shell 1 1121",
        "Satellite Number": 1121,
        "Semi-Major Axis(m)": 6931778.249405717,
        "Time(s)": 80
    },
    {
        "Altitude(m)": 555763.8781347251,
        "Argument of Periapsis(deg)": 0.0031372063156011316,
        "Eccentricity": 0.0,
        "Inclination(deg)": 53.0,
        "Latitude(deg)": -8.670877918082708,
        "Longitude(deg)": 143.08734521579927,
        "Mean Anomaly(deg)": -10.722119167989572,
        "RAAN(deg)": 249.99533106930278,
        "Satellite Name": "Starlink Shell 1 1121",
        "Satellite Number": 1121,
        "Semi-Major Axis(m)": 6931778.249405717,
        "Time(s)": 90
    },
    {
        "Altitude(m)": 555653.8146857418,
        "Argument of Periapsis(deg)": 0.0034857847951123688,
        "Eccentricity": 0.0,
        "Inclination(deg)": 53.0,
        "Latitude(deg)": -8.170343904995244,
        "Longitude(deg)": 143.4307670164845,
        "Mean Anomaly(deg)": -10.095287964432876,
        "RAAN(deg)": 249.9948122992253,
        "Satellite Name": "Starlink Shell 1 1121",
        "Satellite Number": 1121,
        "Semi-Major Axis(m)": 6931778.249405717,
        "Time(s)": 100
    },
    {
        "Altitude(m)": 555546.2431643764,
        "Argument of Periapsis(deg)": 0.003834363274623606,
        "Eccentricity": 0.0,
        "Inclination(deg)": 53.0,
        "Latitude(deg)": -7.669420421639724,
        "Longitude(deg)": 143.77324123890915,
        "Mean Anomaly(deg)": -9.468456760876231,
        "RAAN(deg)": 249.99429352914785,
        "Satellite Name": "Starlink Shell 1 1121",
        "Satellite Number": 1121,
        "Semi-Major Axis(m)": 6931778.249405717,
        "Time(s)": 110
    },
    {
        "Altitude(m)": 555441.1923153203,
        "Argument of Periapsis(deg)": 0.004182941754134842,
        "Eccentricity": 0.0,
        "Inclination(deg)": 53.0,
        "Latitude(deg)": -7.168131776536722,
        "Longitude(deg)": 144.1148284604266,
        "Mean Anomaly(deg)": -8.841625557319384,
        "RAAN(deg)": 249.99377475907036,
        "Satellite Name": "Starlink Shell 1 1121",
        "Satellite Number": 1121,
        "Semi-Major Axis(m)": 6931778.249405717,
        "Time(s)": 120
    },
    {
        "Altitude(m)": 555338.6896245157,
        "Argument of Periapsis(deg)": 0.004531520233646079,
        "Eccentricity": 0.0,
        "Inclination(deg)": 53.0,
        "Latitude(deg)": -6.666502097551057,
        "Longitude(deg)": 144.45558938015313,
        "Mean Anomaly(deg)": -8.214794353762688,
        "RAAN(deg)": 249.99325598899287,
        "Satellite Name": "Starlink Shell 1 1121",
        "Satellite Number": 1121,
        "Semi-Major Axis(m)": 6931778.249405717,
        "Time(s)": 130
    },
    {
        "Altitude(m)": 555238.7613081818,
        "Argument of Periapsis(deg)": 0.0048800987131573164,
        "Eccentricity": 0.0,
        "Inclination(deg)": 53.0,
        "Latitude(deg)": -6.164555344763708,
        "Longitude(deg)": 144.7955838362722,
        "Mean Anomaly(deg)": -7.587963150206094,
        "RAAN(deg)": 249.9927372189154,
        "Satellite Name": "Starlink Shell 1 1121",
        "Satellite Number": 1121,
        "Semi-Major Axis(m)": 6931778.249405717,
        "Time(s)": 140
    },
    {
        "Altitude(m)": 555141.432302475,
        "Argument of Periapsis(deg)": 0.005228677192668553,
        "Eccentricity": 0.0,
        "Inclination(deg)": 53.0,
        "Latitude(deg)": -5.662315323187102,
        "Longitude(deg)": 145.13487133613046,
        "Mean Anomaly(deg)": -6.961131946649298,
        "RAAN(deg)": 249.99221844883792,
        "Satellite Name": "Starlink Shell 1 1121",
        "Satellite Number": 1121,
        "Semi-Major Axis(m)": 6931778.249405717,
        "Time(s)": 150
    },
    {
        "Altitude(m)": 555046.726253769,
        "Argument of Periapsis(deg)": 0.00557725567217979,
        "Eccentricity": 0.0,
        "Inclination(deg)": 53.0,
        "Latitude(deg)": -5.159805695331844,
        "Longitude(deg)": 145.47351158625673,
        "Mean Anomaly(deg)": -6.3343007430926015,
        "RAAN(deg)": 249.99169967876045,
        "Satellite Name": "Starlink Shell 1 1121",
        "Satellite Number": 1121,
        "Semi-Major Axis(m)": 6931778.249405717,
        "Time(s)": 160
    },
    {
        "Altitude(m)": 554954.6655096133,
        "Argument of Periapsis(deg)": 0.0059258341516910265,
        "Eccentricity": 0.0,
        "Inclination(deg)": 53.0,
        "Latitude(deg)": -4.657049993633382,
        "Longitude(deg)": 145.81156350943414,
        "Mean Anomaly(deg)": -5.707469539535906,
        "RAAN(deg)": 249.99118090868302,
        "Satellite Name": "Starlink Shell 1 1121",
        "Satellite Number": 1121,
        "Semi-Major Axis(m)": 6931778.249405717,
        "Time(s)": 170
    },
    {
        "Altitude(m)": 554865.2711103009,
        "Argument of Periapsis(deg)": 0.006274412631202263,
        "Eccentricity": 0.0,
        "Inclination(deg)": 53.0,
        "Latitude(deg)": -4.154071632756741,
        "Longitude(deg)": 146.14908577457453,
        "Mean Anomaly(deg)": -5.08063833597921,
        "RAAN(deg)": 249.9906621386055,
        "Satellite Name": "Starlink Shell 1 1121",
        "Satellite Number": 1121,
        "Semi-Major Axis(m)": 6931778.249405717,
        "Time(s)": 180
    }
]